APRIZESAT 2             
1 28366U 04025A   23014.56352651  .00000271  00000+0  98840-4 0  9991
2 28366  98.1350 237.5774 0108516  60.3124 300.8813 14.36897338972132
SAUDICOMSAT 1           
1 28369U 04025D   23014.17491468  .00000862  00000+0  21926-3 0  9997
2 28369  98.4712 342.4838 0032192 249.1861 110.5885 14.52980345982504
SAUDICOMSAT 2           
1 28370U 04025E   23014.47118409  .00000734  00000+0  20652-3 0  9996
2 28370  98.5632 342.3304 0058719  82.7803 278.0060 14.47855140979188
APRIZESAT 1             
1 28372U 04025G   23014.50430610  .00000760  00000+0  20617-3 0  9993
2 28372  98.5243 342.3624 0046027 355.1480   4.9261 14.49939271980732
NANOSAT-1               
1 28493U 04049B   23015.21595027  .00002004  00000+0  31010-3 0  9998
2 28493  98.1179 121.2678 0004150 353.5040   6.6113 14.74367069971078
SAUDICOMSAT 7           
1 31119U 07012C   23014.39451337  .00001087  00000+0  21929-3 0  9991
2 31119  98.2113 323.5693 0060121 149.7070 210.7629 14.62344761839588
SAUDICOMSAT 6           
1 31121U 07012E   23014.67182719  .00001146  00000+0  24473-3 0  9993
2 31121  98.2503 319.0840 0074669 255.5584 103.7321 14.59114217837817
SAUDICOMSAT 5           
1 31124U 07012H   23014.14344984  .00001259  00000+0  24443-3 0  9994
2 31124  98.1808 324.7114 0052433  95.6435 265.0750 14.64088741840480
SAUDICOMSAT 3           
1 31125U 07012J   23014.41597034  .00001792  00000+0  33193-3 0  9995
2 31125  98.1469 326.2280 0043680  40.4173 320.0262 14.65956703841480
SAUDICOMSAT 4           
1 31127U 07012L   23015.29906347  .00001124  00000+0  23287-3 0  9997
2 31127  98.2336 322.9066 0066973 197.0699 162.8249 14.60854274838863
APRIZESAT 4             
1 35684U 09041D   23014.88214339  .00001420  00000+0  19219-3 0  9999
2 35684  98.3001  40.6849 0047306  34.7198 325.7084 14.79928854726384
APRIZESAT 3             
1 35686U 09041F   23015.50636220  .00002892  00000+0  30427-3 0  9996
2 35686  98.0999 111.8705 0070694 212.3241 147.3634 14.88420018730192
AISSAT 1                
1 36797U 10035C   23015.49935125  .00004357  00000+0  48354-3 0  9995
2 36797  98.2329 212.3705 0010229 194.2354 165.8575 14.87761050678095
S-NET D                 
1 43186U 18014G   23014.73038087  .00005436  00000+0  45417-3 0  9993
2 43186  97.6451 281.3616 0009553 309.5938  50.4441 14.98899370270557
S-NET B                 
1 43187U 18014H   23014.73086317  .00005402  00000+0  45134-3 0  9992
2 43187  97.6447 281.3027 0009507 309.5802  50.4581 14.98896055270550
S-NET A                 
1 43188U 18014J   23014.66439447  .00005460  00000+0  45616-3 0  9990
2 43188  97.6453 281.3138 0009499 309.9469  50.0918 14.98895930270544
S-NET C                 
1 43189U 18014K   23014.99940019  .00006239  00000+0  52052-3 0  9996
2 43189  97.6446 281.5512 0009309 308.8528  51.1863 14.98895755269149
SALSAT                  
1 46495U 20068K   23013.72506136  .00006757  00000+0  47010-3 0  9992
2 46495  97.7541 320.4906 0014648 286.5757  73.3861 15.05734039125812
